NORAD_CAT_ID,OBJECT_NAME,OBJECT_TYPE,EPOCH,MEAN_MOTION,ECCENTRICITY,INCLINATION,RA_OF_ASC_NODE,ARG_OF_PERICENTER,MEAN_ANOMALY,BSTAR,MEAN_MOTION_DOT,MEAN_MOTION_DDOT,TLE_LINE0,TLE_LINE1,TLE_LINE2,SEMIMAJOR_AXIS,PERIOD,APOGEE,PERIGEE,DECAYED
53985.0,STARLINK-5147,PAYLOAD,2024-02-19 22:35:10,15.08833136,0.0001561,53.2185,335.6132,100.0977,260.0191,4.2021e-05,3.81e-06,0.0,0 STARLINK-5147,1 53985U 22125X   24050.94109272  .00000381  00000-0  42021-4 0  9992,2 53985  53.2185 335.6132 0001561 100.0977 260.0191 15.08833136 76422,6917.901,95.438,540.846,538.686,0.0
53985.0,STARLINK-5147,PAYLOAD,2024-02-20 01:45:56,15.08833953,0.0001487,53.218,335.018,93.8264,266.2899,9.0348e-06,-1.44e-06,0.0,0 STARLINK-5147,1 53985U 22125X   24051.07357303 -.00000144  00000-0  90348-5 0  9991,2 53985  53.2180 335.0180 0001487  93.8264 266.2899 15.08833953 76519,6917.899,95.438,540.793,538.735,0.0
53985.0,STARLINK-5147,PAYLOAD,2024-02-20 11:18:15,15.08837999,0.0001467,53.2185,333.2367,90.0928,270.0232,3.5942e-05,2.84e-06,0.0,0 STARLINK-5147,1 53985U 22125X   24051.47101217  .00000284  00000-0  35942-4 0  9998,2 53985  53.2185 333.2367 0001467  90.0928 270.0232 15.08837999 76502,6917.887,95.438,540.766,538.737,0.0
53985.0,STARLINK-5147,PAYLOAD,2024-02-20 22:25:56,15.08848401,0.0001198,53.218,331.1557,83.8978,276.215,6.8265e-05,7.99e-06,0.0,0 STARLINK-5147,1 53985U 22125X   24051.93468727  .00000799  00000-0  68265-4 0  9996,2 53985  53.2180 331.1557 0001198  83.8978 276.2150 15.08848401 76575,6917.855,95.437,540.548,538.891,0.0
53985.0,STARLINK-5147,PAYLOAD,2024-02-21 01:36:42,15.08853461,0.0001329,53.2176,330.5606,88.0365,272.0779,0.00017248,2.459e-05,0.0,0 STARLINK-5147,1 53985U 22125X   24052.06716376  .00002459  00000-0  17248-3 0  9996,2 53985  53.2176 330.5606 0001329  88.0365 272.0779 15.08853461 76664,6917.839,95.437,540.624,538.785,0.0
53985.0,STARLINK-5147,PAYLOAD,2024-02-21 11:09:01,15.08844108,0.0001408,53.2184,328.7774,92.5236,267.5917,4.9612e-05,5.02e-06,0.0,0 STARLINK-5147,1 53985U 22125X   24052.46460565  .00000502  00000-0  49612-4 0  9994,2 53985  53.2184 328.7774 0001408  92.5236 267.5917 15.08844108 76721,6917.868,95.437,540.707,538.759,0.0
53985.0,STARLINK-5147,PAYLOAD,2024-02-21 22:16:44,15.08832024,0.0001872,53.2193,326.7027,101.2054,258.9149,-1.7883e-05,-5.73e-06,0.0,0 STARLINK-5147,1 53985U 22125X   24052.92829680 -.00000573  00000-0 -17883-4 0  9997,2 53985  53.2193 326.7027 0001872 101.2054 258.9149 15.08832024 76726,6917.905,95.438,541.065,538.475,0.0
53985.0,STARLINK-5147,PAYLOAD,2024-02-22 03:02:54,15.08836354,0.0001805,53.2183,325.8033,74.3768,285.7423,3.9518e-05,3.41e-06,0.0,0 STARLINK-5147,1 53985U 22125X   24053.12701554  .00000341  00000-0  39518-4 0  9999,2 53985  53.2183 325.8033 0001805  74.3768 285.7423 15.08836354 76824,6917.892,95.438,541.005,538.508,0.0
53985.0,STARLINK-5147,PAYLOAD,2024-02-22 10:59:49,15.08841584,0.0001872,53.2189,324.3164,77.3019,282.8182,0.00010119,1.323e-05,0.0,0 STARLINK-5147,1 53985U 22125X   24053.45821376  .00001323  00000-0  10119-3 0  9996,2 53985  53.2189 324.3164 0001872  77.3019 282.8182 15.08841584 76804,6917.876,95.437,541.036,538.446,0.0
53985.0,STARLINK-5147,PAYLOAD,2024-02-22 22:07:31,15.08845745,0.0001869,53.2192,322.2371,85.0046,275.1159,8.0345e-05,9.91e-06,0.0,0 STARLINK-5147,1 53985U 22125X   24053.92189145  .00000991  00000-0  80345-4 0  9998,2 53985  53.2192 322.2371 0001869  85.0046 275.1159 15.08845745 76876,6917.863,95.437,541.021,538.435,0.0
53985.0,STARLINK-5147,PAYLOAD,2024-02-23 01:18:17,15.08847055,0.0001835,53.2185,321.6419,83.5906,276.5295,0.00015802,2.228e-05,0.0,0 STARLINK-5147,1 53985U 22125X   24054.05437080  .00002228  00000-0  15802-3 0  9997,2 53985  53.2185 321.6419 0001835  83.5906 276.5295 15.08847055 76967,6917.859,95.437,540.993,538.454,0.0
53985.0,STARLINK-5147,PAYLOAD,2024-02-23 17:12:09,15.08841631,0.0001822,53.2175,318.6704,85.7548,274.3653,0.00018452,2.65e-05,0.0,0 STARLINK-5147,1 53985U 22125X   24054.71677427  .00002650  00000-0  18452-3 0  9994,2 53985  53.2175 318.6704 0001822  85.7548 274.3653 15.08841631 77061,6917.875,95.437,541.001,538.48,0.0
53985.0,STARLINK-5147,PAYLOAD,2024-02-23 21:58:18,15.08839724,0.0001823,53.2178,317.7777,84.7519,275.3681,0.00017963,2.572e-05,0.0,0 STARLINK-5147,1 53985U 22125X   24054.91549556  .00002572  00000-0  17963-3 0  9996,2 53985  53.2178 317.7777 0001823  84.7519 275.3681 15.08839724 77020,6917.881,95.438,541.007,538.485,0.0
53985.0,STARLINK-5147,PAYLOAD,2024-02-24 10:41:23,15.0883956,0.0001723,53.2179,315.3969,89.8121,270.3069,8.3999e-05,1.049e-05,0.0,0 STARLINK-5147,1 53985U 22125X   24055.44541519  .00001049  00000-0  83999-4 0  9997,2 53985  53.2179 315.3969 0001723  89.8121 270.3069 15.08839560 77104,6917.882,95.438,540.939,538.555,0.0
53985.0,STARLINK-5147,PAYLOAD,2024-02-25 10:32:10,15.08845011,0.0001691,53.218,310.9345,95.9919,264.1266,0.00021069,3.067e-05,0.0,0 STARLINK-5147,1 53985U 22125X   24056.43901407  .00003067  00000-0  21069-3 0  9994,2 53985  53.2180 310.9345 0001691  95.9919 264.1266 15.08845011 77256,6917.865,95.437,540.9,538.56,0.0
53985.0,STARLINK-5147,PAYLOAD,2024-02-25 20:04:29,15.08850098,0.0001493,53.2171,309.1507,101.0955,259.0205,0.00025425,3.762e-05,0.0,0 STARLINK-5147,1 53985U 22125X   24056.83645153  .00003762  00000-0  25425-3 0  9993,2 53985  53.2171 309.1507 0001493 101.0955 259.0205 15.08850098 77386,6917.85,95.437,540.747,538.682,0.0
53985.0,STARLINK-5147,PAYLOAD,2024-02-25 23:15:15,15.08853665,0.0001687,53.2177,308.556,102.293,257.8251,0.00034779,5.253e-05,0.0,0 STARLINK-5147,1 53985U 22125X   24056.96893053  .00005253  00000-0  34779-3 0  9990,2 53985  53.2177 308.5560 0001687 102.2930 257.8251 15.08853665 77330,6917.839,95.437,540.871,538.537,0.0
53985.0,STARLINK-5147,PAYLOAD,2024-02-26 19:55:16,15.08842466,0.0001497,53.2165,304.6901,95.2321,264.8842,0.00013931,1.93e-05,0.0,0 STARLINK-5147,1 53985U 22125X   24057.83005430  .00001930  00000-0  13931-3 0  9996,2 53985  53.2165 304.6901 0001497  95.2321 264.8842 15.08842466 77530,6917.873,95.437,540.773,538.702,0.0
53985.0,STARLINK-5147,PAYLOAD,2024-02-26 21:30:39,15.08840856,0.0001446,53.2166,304.3929,94.2343,265.8814,0.00010333,1.357e-05,0.0,0 STARLINK-5147,1 53985U 22125X   24057.89629467  .00001357  00000-0  10333-3 0  9990,2 53985  53.2166 304.3929 0001446  94.2343 265.8814 15.08840856 77479,6917.878,95.438,540.743,538.742,0.0
53985.0,STARLINK-5147,PAYLOAD,2024-02-27 02:16:49,15.08841095,0.0001457,53.2168,303.5018,87.579,272.5369,9.8647e-05,1.282e-05,0.0,0 STARLINK-5147,1 53985U 22125X   24058.09501507  .00001282  00000-0  98647-4 0  9999,2 53985  53.2168 303.5018 0001457  87.5790 272.5369 15.08841095 77504,6917.877,95.437,540.75,538.734,0.0
53985.0,STARLINK-5147,PAYLOAD,2024-02-27 19:46:03,15.08837292,0.0001447,53.216,300.2296,92.129,267.9868,3.2823e-05,2.34e-06,0.0,0 STARLINK-5147,1 53985U 22125X   24058.82365717  .00000234  00000-0  32823-4 0  9991,2 53985  53.2160 300.2296 0001447  92.1290 267.9868 15.08837292 77689,6917.889,95.438,540.755,538.753,0.0
53985.0,STARLINK-5147,PAYLOAD,2024-02-27 21:21:27,15.08837843,0.0001456,53.2165,299.9323,93.6381,266.4778,2.2e-05,6.2e-07,0.0,0 STARLINK-5147,1 53985U 22125X   24058.88989730  .00000062  00000-0  22000-4 0  9999,2 53985  53.2165 299.9323 0001456  93.6381 266.4778 15.08837843 77626,6917.887,95.438,540.759,538.745,0.0
53985.0,STARLINK-5147,PAYLOAD,2024-02-27 22:56:51,15.08817305,0.0001678,53.2163,299.6348,97.0919,263.0264,0.00063735,9.864e-05,0.0,0 STARLINK-5147,1 53985U 22125X   24058.95614814  .00009864  00000-0  63735-3 0  9993,2 53985  53.2163 299.6348 0001678  97.0919 263.0264 15.08817305 77702,6917.95,95.439,540.976,538.654,0.0
53985.0,STARLINK-5147,PAYLOAD,2024-02-28 08:29:09,15.08839292,0.0001475,53.2163,297.8512,89.5054,270.6107,9.2858e-05,1.19e-05,0.0,0 STARLINK-5147,1 53985U 22125X   24059.35357696  .00001190  00000-0  92858-4 0  9993,2 53985  53.2163 297.8512 0001475  89.5054 270.6107 15.08839292 77761,6917.883,95.438,540.768,538.727,0.0
53985.0,STARLINK-5147,PAYLOAD,2024-02-28 21:12:14,15.08833604,0.0001588,53.218,295.4735,103.9263,256.1906,8.2315e-05,1.022e-05,0.0,0 STARLINK-5147,1 53985U 22125X   24059.88350242  .00001022  00000-0  82315-4 0  9992,2 53985  53.2180 295.4735 0001588 103.9263 256.1906 15.08833604 77777,6917.9,95.438,540.864,538.666,0.0
53985.0,STARLINK-5147,PAYLOAD,2024-02-29 08:19:56,15.08846798,0.0001491,53.218,293.3941,100.7746,259.3414,-7.6938e-05,-1.512e-05,0.0,0 STARLINK-5147,1 53985U 22125X   24060.34717822 -.00001512  00000-0 -76938-4 0  9996,2 53985  53.2180 293.3941 0001491 100.7746 259.3414 15.08846798 77910,6917.86,95.437,540.756,538.693,0.0
53985.0,STARLINK-5147,PAYLOAD,2024-02-29 19:27:38,15.08836158,0.0001498,53.2178,291.314,103.8809,256.235,7.6901e-05,9.36e-06,0.0,0 STARLINK-5147,1 53985U 22125X   24060.81086471  .00000936  00000-0  76901-4 0  9994,2 53985  53.2178 291.3140 0001498 103.8809 256.2350 15.08836158 77988,6917.892,95.438,540.793,538.721,0.0
53985.0,STARLINK-5147,PAYLOAD,2024-02-29 22:38:24,15.08837582,0.0001467,53.2178,290.7194,102.2309,257.8847,8.1016e-05,1.002e-05,0.0,0 STARLINK-5147,1 53985U 22125X   24060.94334399  .00001002  00000-0  81016-4 0  9991,2 53985  53.2178 290.7194 0001467 102.2309 257.8847 15.08837582 77939,6917.888,95.438,540.768,538.738,0.0
53985.0,STARLINK-5147,PAYLOAD,2024-03-01 08:10:43,15.08841256,0.0001413,53.2184,288.9304,97.9325,262.1828,5.4671e-05,5.82e-06,0.0,0 STARLINK-5147,1 53985U 22125X   24061.34078314  .00000582  00000-0  54671-4 0  9997,2 53985  53.2184 288.9304 0001413  97.9325 262.1828 15.08841256 77994,6917.877,95.437,540.719,538.764,0.0
53985.0,STARLINK-5147,PAYLOAD,2024-03-01 20:53:48,15.0883832,0.0001422,53.2178,286.5512,88.1813,271.9342,0.00024123,3.553e-05,0.0,0 STARLINK-5147,1 53985U 22125X   24061.87070129  .00003553  00000-0  24123-3 0  9990,2 53985  53.2178 286.5512 0001422  88.1813 271.9342 15.08838320 78073,6917.886,95.438,540.734,538.767,0.0
